[{"OBJECT_NAME":"STARLINK-4641","OBJECT_ID":"2022-107AG","EPOCH":"2026-03-09T21:24:11.129472","MEAN_MOTION":15.08837422,"ECCENTRICITY":0.00013285,"INCLINATION":53.216,"RA_OF_ASC_NODE":253.2472,"ARG_OF_PERICENTER":86.2475,"MEAN_ANOMALY":273.8669,"EPHEMERIS_TYPE":0,"CLASSIFICATION_TYPE":"U","NORAD_CAT_ID":53730,"ELEMENT_SET_NO":999,"REV_AT_EPOCH":19458,"BSTAR":1.0996683e-5,"MEAN_MOTION_DOT":-1.13e-6,"MEAN_MOTION_DDOT":0},{"OBJECT_NAME":"FENGYUN 1C DEB","OBJECT_ID":"1999-025CFH","EPOCH":"2026-03-07T23:38:47.437728","MEAN_MOTION":14.44985594,"ECCENTRICITY":0.03068092,"INCLINATION":98.0605,"RA_OF_ASC_NODE":76.6957,"ARG_OF_PERICENTER":189.4978,"MEAN_ANOMALY":170.0331,"EPHEMERIS_TYPE":0,"CLASSIFICATION_TYPE":"U","NORAD_CAT_ID":31758,"ELEMENT_SET_NO":999,"REV_AT_EPOCH":95430,"BSTAR":0.0018761349,"MEAN_MOTION_DOT":0.00011691,"MEAN_MOTION_DDOT":0}]
